{
"type": "FeatureCollection",
"name": "costa_vasca_labels",
"crs": { "type": "name", "properties": { "name": "urn:ogc:def:crs:EPSG::32630" } },
"features": [
{"type":"Feature","properties":{"fid":1,"clase":"agua"},"geometry":{"type":"Point","coordinates":[551458.094057685579173,4797792.346339033916593]}},
{"type":"Feature","properties":{"fid":2,"clase":"agua"},"geometry":{"type":"Point","coordinates":[550425.345906144939363,4797749.569788377732038]}},
{"type":"Feature","properties":{"fid":3,"clase":"agua"},"geometry":{"type":"Point","coordinates":[551855.304885201156139,4797382.91363990213722]}},
{"type":"Feature","properties":{"fid":4,"clase":"agua"},"geometry":{"type":"Point","coordinates":[552900.274908357765526,4797651.794815450906754]}},
{"type":"Feature","properties":{"fid":5,"clase":"agua"},"geometry":{"type":"Point","coordinates":[551268.655047639622353,4797004.035619810223579]}},
{"type":"Feature","properties":{"fid":6,"clase":"agua"},"geometry":{"type":"Point","coordinates":[553566.366911422344856,4797602.907328987494111]}},
{"type":"Feature","properties":{"fid":7,"clase":"agua"},"geometry":{"type":"Point","coordinates":[552582.506246345234104,4797254.583987935446203]}},
{"type":"Feature","properties":{"fid":8,"clase":"agua"},"geometry":{"type":"Point","coordinates":[552319.73600660415832,4797694.571366106159985]}},
{"type":"Feature","properties":{"fid":9,"clase":"agua"},"geometry":{"type":"Point","coordinates":[553279.152928449446335,4796973.480940770357847]}},
{"type":"Feature","properties":{"fid":10,"clase":"agua"},"geometry":{"type":"Point","coordinates":[554208.015171255217865,4797199.585565663874149]}},
{"type":"Feature","properties":{"fid":11,"clase":"agua"},"geometry":{"type":"Point","coordinates":[554354.677630645688623,4797798.457274841144681]}},
{"type":"Feature","properties":{"fid":12,"clase":"agua"},"geometry":{"type":"Point","coordinates":[555277.428937643533573,4797248.473052127286792]}},
{"type":"Feature","properties":{"fid":13,"clase":"agua"},"geometry":{"type":"Point","coordinates":[555998.519362979568541,4797725.126045146025717]}},
{"type":"Feature","properties":{"fid":14,"clase":"agua"},"geometry":{"type":"Point","coordinates":[556249.067731104791164,4796680.156021989881992]}},
{"type":"Feature","properties":{"fid":15,"clase":"agua"},"geometry":{"type":"Point","coordinates":[555479.089819305343553,4796515.160755175165832]}},
{"type":"Feature","properties":{"fid":16,"clase":"agua"},"geometry":{"type":"Point","coordinates":[557061.822193559841253,4797578.46358575578779]}},
{"type":"Feature","properties":{"fid":17,"clase":"agua"},"geometry":{"type":"Point","coordinates":[556212.402116257231683,4797114.032464352436364]}},
{"type":"Feature","properties":{"fid":18,"clase":"agua"},"geometry":{"type":"Point","coordinates":[557813.467297935625538,4797126.254335968755186]}},
{"type":"Feature","properties":{"fid":19,"clase":"agua"},"geometry":{"type":"Point","coordinates":[557025.156578712281771,4796502.938883559778333]}},
{"type":"Feature","properties":{"fid":20,"clase":"agua"},"geometry":{"type":"Point","coordinates":[556407.952062111115083,4796160.726478314958513]}},
{"type":"Feature","properties":{"fid":21,"clase":"agua"},"geometry":{"type":"Point","coordinates":[550724.781760733807459,4799032.866308042779565]}},
{"type":"Feature","properties":{"fid":22,"clase":"agua"},"geometry":{"type":"Point","coordinates":[551751.418976466520689,4798666.210159566253424]}},
{"type":"Feature","properties":{"fid":23,"clase":"agua"},"geometry":{"type":"Point","coordinates":[552998.049881284823641,4798977.867885771207511]}},
{"type":"Feature","properties":{"fid":24,"clase":"agua"},"geometry":{"type":"Point","coordinates":[553425.815387840033509,4798372.885240785777569]}},
{"type":"Feature","properties":{"fid":25,"clase":"agua"},"geometry":{"type":"Point","coordinates":[552496.953145034261979,4798354.552433362230659]}},
{"type":"Feature","properties":{"fid":26,"clase":"agua"},"geometry":{"type":"Point","coordinates":[549557.593021418666467,4798562.32425083220005]}},
{"type":"Feature","properties":{"fid":27,"clase":"agua"},"geometry":{"type":"Point","coordinates":[549331.488396525150165,4797939.008798422291875]}},
{"type":"Feature","properties":{"fid":28,"clase":"agua"},"geometry":{"type":"Point","coordinates":[548145.966849786113016,4799478.964622022584081]}},
{"type":"Feature","properties":{"fid":29,"clase":"agua"},"geometry":{"type":"Point","coordinates":[546422.682951949071139,4799216.194382281042635]}},
{"type":"Feature","properties":{"fid":30,"clase":"agua"},"geometry":{"type":"Point","coordinates":[547198.771799556561746,4799087.864730314351618]}},
{"type":"Feature","properties":{"fid":31,"clase":"agua"},"geometry":{"type":"Point","coordinates":[553725.251242428668775,4799680.625503685325384]}},
{"type":"Feature","properties":{"fid":32,"clase":"agua"},"geometry":{"type":"Point","coordinates":[554226.347978679230437,4798800.650747342966497]}},
{"type":"Feature","properties":{"fid":33,"clase":"agua"},"geometry":{"type":"Point","coordinates":[551574.20183803641703,4799631.738017221912742]}},
{"type":"Feature","properties":{"fid":34,"clase":"agua"},"geometry":{"type":"Point","coordinates":[562622.773778778850101,4797761.791659993119538]}},
{"type":"Feature","properties":{"fid":35,"clase":"agua"},"geometry":{"type":"Point","coordinates":[552600.83905376913026,4799423.966199750080705]}},
{"type":"Feature","properties":{"fid":36,"clase":"agua"},"geometry":{"type":"Point","coordinates":[551989.745472975773737,4796869.595032034441829]}},
{"type":"Feature","properties":{"fid":37,"clase":"agua"},"geometry":{"type":"Point","coordinates":[550498.677135840174742,4798360.663369169458747]}},
{"type":"Feature","properties":{"fid":38,"clase":"agua"},"geometry":{"type":"Point","coordinates":[550046.467886053142138,4797419.579254748299718]}},
{"type":"Feature","properties":{"fid":39,"clase":"agua"},"geometry":{"type":"Point","coordinates":[548640.952650228631683,4798397.32898401748389]}},
{"type":"Feature","properties":{"fid":40,"clase":"agua"},"geometry":{"type":"Point","coordinates":[548066.524684282951057,4798305.664946896955371]}},
{"type":"Feature","properties":{"fid":41,"clase":"agua"},"geometry":{"type":"Point","coordinates":[548078.746555898804218,4799100.086601928807795]}},
{"type":"Feature","properties":{"fid":42,"clase":"agua"},"geometry":{"type":"Point","coordinates":[547424.876424449961632,4799570.62865913938731]}},
{"type":"Feature","properties":{"fid":43,"clase":"agua"},"geometry":{"type":"Point","coordinates":[546777.117228809162043,4799448.409942980855703]}},
{"type":"Feature","properties":{"fid":44,"clase":"agua"},"geometry":{"type":"Point","coordinates":[546062.13773928093724,4799668.403632066212595]}},
{"type":"Feature","properties":{"fid":45,"clase":"agua"},"geometry":{"type":"Point","coordinates":[546874.892201736103743,4799705.069246914237738]}},
{"type":"Feature","properties":{"fid":46,"clase":"agua"},"geometry":{"type":"Point","coordinates":[547290.43583667546045,4799753.95673337765038]}},
{"type":"Feature","properties":{"fid":47,"clase":"agua"},"geometry":{"type":"Point","coordinates":[547742.645086462493055,4799637.848953026346862]}},
{"type":"Feature","properties":{"fid":48,"clase":"agua"},"geometry":{"type":"Point","coordinates":[551525.314351572887972,4799320.080291014164686]}},
{"type":"Feature","properties":{"fid":49,"clase":"agua"},"geometry":{"type":"Point","coordinates":[552264.737584332819097,4798947.313206730410457]}},
{"type":"Feature","properties":{"fid":50,"clase":"agua"},"geometry":{"type":"Point","coordinates":[551134.214459865237586,4798696.764838605187833]}},
{"type":"Feature","properties":{"fid":51,"clase":"vegetacion"},"geometry":{"type":"Point","coordinates":[589639.220985649968497,4798299.554011090658605]}},
{"type":"Feature","properties":{"fid":52,"clase":"vegetacion"},"geometry":{"type":"Point","coordinates":[591484.723599645658396,4798745.652325069531798]}},
{"type":"Feature","properties":{"fid":53,"clase":"vegetacion"},"geometry":{"type":"Point","coordinates":[592169.148410134133883,4799173.417831624858081]}},
{"type":"Feature","properties":{"fid":54,"clase":"vegetacion"},"geometry":{"type":"Point","coordinates":[589309.230452021583915,4798672.321095374412835]}},
{"type":"Feature","properties":{"fid":55,"clase":"vegetacion"},"geometry":{"type":"Point","coordinates":[589022.016469048685394,4798831.205426380969584]}},
{"type":"Feature","properties":{"fid":56,"clase":"vegetacion"},"geometry":{"type":"Point","coordinates":[590366.422346793930046,4799142.863152584992349]}},
{"type":"Feature","properties":{"fid":57,"clase":"vegetacion"},"geometry":{"type":"Point","coordinates":[592914.682578701758757,4799362.856841672211885]}},
{"type":"Feature","properties":{"fid":58,"clase":"vegetacion"},"geometry":{"type":"Point","coordinates":[506038.563665225345176,4758578.47125952783972]}},
{"type":"Feature","properties":{"fid":59,"clase":"vegetacion"},"geometry":{"type":"Point","coordinates":[506136.338638152345084,4758734.300122630782425]}},
{"type":"Feature","properties":{"fid":60,"clase":"vegetacion"},"geometry":{"type":"Point","coordinates":[505794.126232907932717,4758679.301700359210372]}},
{"type":"Feature","properties":{"fid":61,"clase":"vegetacion"},"geometry":{"type":"Point","coordinates":[505800.237168715859298,4758807.631352325901389]}},
{"type":"Feature","properties":{"fid":62,"clase":"vegetacion"},"geometry":{"type":"Point","coordinates":[506243.280014791234862,4758957.349279619753361]}},
{"type":"Feature","properties":{"fid":63,"clase":"vegetacion"},"geometry":{"type":"Point","coordinates":[506597.714291651558597,4759110.122674818150699]}},
{"type":"Feature","properties":{"fid":64,"clase":"vegetacion"},"geometry":{"type":"Point","coordinates":[507095.755559998331591,4758908.461793156340718]}},
{"type":"Feature","properties":{"fid":65,"clase":"vegetacion"},"geometry":{"type":"Point","coordinates":[508125.448243635415565,4759244.563262593001127]}},
{"type":"Feature","properties":{"fid":66,"clase":"vegetacion"},"geometry":{"type":"Point","coordinates":[509280.415111335285474,4758642.636085511185229]}},
{"type":"Feature","properties":{"fid":67,"clase":"vegetacion"},"geometry":{"type":"Point","coordinates":[509555.407222692447249,4759348.449171327985823]}},
{"type":"Feature","properties":{"fid":68,"clase":"vegetacion"},"geometry":{"type":"Point","coordinates":[507526.576534457679372,4758722.078251013532281]}},
{"type":"Feature","properties":{"fid":69,"clase":"vegetacion"},"geometry":{"type":"Point","coordinates":[511969.226866826938931,4761762.268815461546183]}},
{"type":"Feature","properties":{"fid":70,"clase":"vegetacion"},"geometry":{"type":"Point","coordinates":[525679.111351931234822,4759935.09900888800621]}},
{"type":"Feature","properties":{"fid":71,"clase":"vegetacion"},"geometry":{"type":"Point","coordinates":[525156.626340352697298,4760008.430238583125174]}},
{"type":"Feature","properties":{"fid":72,"clase":"vegetacion"},"geometry":{"type":"Point","coordinates":[525058.851367425755598,4760466.750424178317189]}},
{"type":"Feature","properties":{"fid":73,"clase":"vegetacion"},"geometry":{"type":"Point","coordinates":[524863.301421571872197,4759415.669465213082731]}},
{"type":"Feature","properties":{"fid":74,"clase":"vegetacion"},"geometry":{"type":"Point","coordinates":[525465.22859865333885,4758975.682087042368948]}},
{"type":"Feature","properties":{"fid":75,"clase":"vegetacion"},"geometry":{"type":"Point","coordinates":[522733.640292506024707,4757997.932357773184776]}},
{"type":"Feature","properties":{"fid":76,"clase":"vegetacion"},"geometry":{"type":"Point","coordinates":[523234.737028756760992,4757017.127160599455237]}},
{"type":"Feature","properties":{"fid":77,"clase":"vegetacion"},"geometry":{"type":"Point","coordinates":[522910.857430936186574,4757102.6802619099617]}},
{"type":"Feature","properties":{"fid":78,"clase":"vegetacion"},"geometry":{"type":"Point","coordinates":[518196.270455113670323,4759160.537895232439041]}},
{"type":"Feature","properties":{"fid":79,"clase":"vegetacion"},"geometry":{"type":"Point","coordinates":[519198.463927615142893,4761299.365428010001779]}},
{"type":"Feature","properties":{"fid":80,"clase":"vegetacion"},"geometry":{"type":"Point","coordinates":[542823.341761095100082,4755261.760849769227207]}},
{"type":"Feature","properties":{"fid":81,"clase":"vegetacion"},"geometry":{"type":"Point","coordinates":[547565.427948053460568,4754076.239303030073643]}},
{"type":"Feature","properties":{"fid":82,"clase":"vegetacion"},"geometry":{"type":"Point","coordinates":[544583.291273780632764,4752163.516395146027207]}},
{"type":"Feature","properties":{"fid":83,"clase":"vegetacion"},"geometry":{"type":"Point","coordinates":[544381.630392118706368,4751857.969604749232531]}},
{"type":"Feature","properties":{"fid":84,"clase":"vegetacion"},"geometry":{"type":"Point","coordinates":[544442.739750198088586,4751509.646263697184622]}},
{"type":"Feature","properties":{"fid":85,"clase":"vegetacion"},"geometry":{"type":"Point","coordinates":[544778.841219634516165,4751497.4243920808658]}},
{"type":"Feature","properties":{"fid":86,"clase":"vegetacion"},"geometry":{"type":"Point","coordinates":[545894.087004582863301,4749639.699906468391418]}},
{"type":"Feature","properties":{"fid":87,"clase":"vegetacion"},"geometry":{"type":"Point","coordinates":[544729.953733171103522,4749991.078715424984694]}},
{"type":"Feature","properties":{"fid":88,"clase":"vegetacion"},"geometry":{"type":"Point","coordinates":[552561.117971041239798,4752032.131275274790823]}},
{"type":"Feature","properties":{"fid":89,"clase":"vegetacion"},"geometry":{"type":"Point","coordinates":[566029.620491731911898,4754647.611801071092486]}},
{"type":"Feature","properties":{"fid":90,"clase":"vegetacion"},"geometry":{"type":"Point","coordinates":[565418.526910938322544,4755295.370996712706983]}},
{"type":"Feature","properties":{"fid":91,"clase":"vegetacion"},"geometry":{"type":"Point","coordinates":[574658.261852537165396,4762833.210315800271928]}},
{"type":"Feature","properties":{"fid":92,"clase":"vegetacion"},"geometry":{"type":"Point","coordinates":[573995.225317375967279,4762023.511321249417961]}},
{"type":"Feature","properties":{"fid":93,"clase":"vegetacion"},"geometry":{"type":"Point","coordinates":[574212.163538557710126,4761510.192713382653892]}},
{"type":"Feature","properties":{"fid":94,"clase":"vegetacion"},"geometry":{"type":"Point","coordinates":[573252.746616711840034,4761873.793393955565989]}},
{"type":"Feature","properties":{"fid":95,"clase":"vegetacion"},"geometry":{"type":"Point","coordinates":[572791.370963212568313,4761342.14197866525501]}},
{"type":"Feature","properties":{"fid":96,"clase":"vegetacion"},"geometry":{"type":"Point","coordinates":[571618.071288088802248,4762362.668258590623736]}},
{"type":"Feature","properties":{"fid":97,"clase":"vegetacion"},"geometry":{"type":"Point","coordinates":[571966.394629141082987,4762778.211893529631197]}},
{"type":"Feature","properties":{"fid":98,"clase":"vegetacion"},"geometry":{"type":"Point","coordinates":[571272.803414940368384,4761941.013687842525542]}},
{"type":"Feature","properties":{"fid":99,"clase":"vegetacion"},"geometry":{"type":"Point","coordinates":[569983.395959465880878,4762885.15327016916126]}},
{"type":"Feature","properties":{"fid":100,"clase":"vegetacion"},"geometry":{"type":"Point","coordinates":[572400.271071504568681,4767440.855914984829724]}},
{"type":"Feature","properties":{"fid":101,"clase":"vegetacion"},"geometry":{"type":"Point","coordinates":[582034.161372715723701,4772010.308165366761386]}},
{"type":"Feature","properties":{"fid":102,"clase":"vegetacion"},"geometry":{"type":"Point","coordinates":[581574.313453168491833,4772375.436579891480505]}},
{"type":"Feature","properties":{"fid":103,"clase":"vegetacion"},"geometry":{"type":"Point","coordinates":[581665.977490287506953,4772566.403323889710009]}},
{"type":"Feature","properties":{"fid":104,"clase":"vegetacion"},"geometry":{"type":"Point","coordinates":[580468.234071932034567,4772114.194074102677405]}},
{"type":"Feature","properties":{"fid":105,"clase":"vegetacion"},"geometry":{"type":"Point","coordinates":[579881.584234370151535,4773146.94222564343363]}},
{"type":"Feature","properties":{"fid":106,"clase":"vegetacion"},"geometry":{"type":"Point","coordinates":[583059.270854496979155,4772682.511104240082204]}},
{"type":"Feature","properties":{"fid":107,"clase":"vegetacion"},"geometry":{"type":"Point","coordinates":[585913.077876802999526,4773953.585752289742231]}},
{"type":"Feature","properties":{"fid":108,"clase":"vegetacion"},"geometry":{"type":"Point","coordinates":[587813.578913071076386,4774961.890160599723458]}},
{"type":"Feature","properties":{"fid":109,"clase":"vegetacion"},"geometry":{"type":"Point","coordinates":[589219.094148896401748,4775909.085210829973221]}},
{"type":"Feature","properties":{"fid":110,"clase":"vegetacion"},"geometry":{"type":"Point","coordinates":[590459.614117907476611,4774075.80446844920516]}},
{"type":"Feature","properties":{"fid":111,"clase":"vegetacion"},"geometry":{"type":"Point","coordinates":[591510.695076872361824,4775114.663555798120797]}},
{"type":"Feature","properties":{"fid":112,"clase":"vegetacion"},"geometry":{"type":"Point","coordinates":[589824.076793882064521,4774864.115187672898173]}},
{"type":"Feature","properties":{"fid":113,"clase":"vegetacion"},"geometry":{"type":"Point","coordinates":[592775.658789115143009,4776312.40697415266186]}},
{"type":"Feature","properties":{"fid":114,"clase":"vegetacion"},"geometry":{"type":"Point","coordinates":[593716.742903537349775,4771998.086293750442564]}},
{"type":"Feature","properties":{"fid":115,"clase":"vegetacion"},"geometry":{"type":"Point","coordinates":[591211.259222283610143,4772529.737709041684866]}},
{"type":"Feature","properties":{"fid":116,"clase":"vegetacion"},"geometry":{"type":"Point","coordinates":[592476.222934526274912,4774405.795002078637481]}},
{"type":"Feature","properties":{"fid":117,"clase":"vegetacion"},"geometry":{"type":"Point","coordinates":[595495.025223646662198,4774858.004251864738762]}},
{"type":"Feature","properties":{"fid":118,"clase":"vegetacion"},"geometry":{"type":"Point","coordinates":[597316.084094411577098,4777418.486355390399694]}},
{"type":"Feature","properties":{"fid":119,"clase":"vegetacion"},"geometry":{"type":"Point","coordinates":[602941.200505616609007,4784077.878652087412775]}},
{"type":"Feature","properties":{"fid":120,"clase":"vegetacion"},"geometry":{"type":"Point","coordinates":[602488.991255829343572,4784087.045055800117552]}},
{"type":"Feature","properties":{"fid":121,"clase":"vegetacion"},"geometry":{"type":"Point","coordinates":[602504.268595349160023,4783581.365117693319917]}},
{"type":"Feature","properties":{"fid":122,"clase":"vegetacion"},"geometry":{"type":"Point","coordinates":[599364.775324022048153,4786563.501791966147721]}},
{"type":"Feature","properties":{"fid":123,"clase":"vegetacion"},"geometry":{"type":"Point","coordinates":[597555.938324872986414,4787895.685798095539212]}},
{"type":"Feature","properties":{"fid":124,"clase":"vegetacion"},"geometry":{"type":"Point","coordinates":[591273.896314315032214,4788763.4386828225106]}},
{"type":"Feature","properties":{"fid":125,"clase":"vegetacion"},"geometry":{"type":"Point","coordinates":[584392.982594579225406,4784058.01811071112752]}},
{"type":"Feature","properties":{"fid":126,"clase":"vegetacion"},"geometry":{"type":"Point","coordinates":[583195.23917622375302,4782371.399827720597386]}},
{"type":"Feature","properties":{"fid":127,"clase":"vegetacion"},"geometry":{"type":"Point","coordinates":[583488.564095004578121,4780965.884591894224286]}},
{"type":"Feature","properties":{"fid":128,"clase":"vegetacion"},"geometry":{"type":"Point","coordinates":[580090.883785792160779,4779328.153795367106795]}},
{"type":"Feature","properties":{"fid":129,"clase":"vegetacion"},"geometry":{"type":"Point","coordinates":[578428.709246033569798,4777995.969789236783981]}},
{"type":"Feature","properties":{"fid":130,"clase":"vegetacion"},"geometry":{"type":"Point","coordinates":[577524.290746459038928,4777763.754228536039591]}},
{"type":"Feature","properties":{"fid":131,"clase":"vegetacion"},"geometry":{"type":"Point","coordinates":[577683.175077465362847,4779450.372511525638402]}},
{"type":"Feature","properties":{"fid":132,"clase":"vegetacion"},"geometry":{"type":"Point","coordinates":[581704.170839087222703,4778118.18850539624691]}},
{"type":"Feature","properties":{"fid":133,"clase":"vegetacion"},"geometry":{"type":"Point","coordinates":[570453.9380166772753,4740613.847718141041696]}},
{"type":"Feature","properties":{"fid":134,"clase":"vegetacion"},"geometry":{"type":"Point","coordinates":[566359.61102536029648,4739794.982319878414273]}},
{"type":"Feature","properties":{"fid":135,"clase":"vegetacion"},"geometry":{"type":"Point","coordinates":[567532.91070048394613,4737607.267300637438893]}},
{"type":"Feature","properties":{"fid":136,"clase":"vegetacion"},"geometry":{"type":"Point","coordinates":[573093.862285705516115,4741131.749527862295508]}},
{"type":"Feature","properties":{"fid":137,"clase":"vegetacion"},"geometry":{"type":"Point","coordinates":[575636.011581806815229,4743490.57074972614646]}},
{"type":"Feature","properties":{"fid":138,"clase":"vegetacion"},"geometry":{"type":"Point","coordinates":[572244.442208402440883,4743906.114384665153921]}},
{"type":"Feature","properties":{"fid":139,"clase":"vegetacion"},"geometry":{"type":"Point","coordinates":[569604.517939374083653,4744339.990827028639615]}},
{"type":"Feature","properties":{"fid":140,"clase":"vegetacion"},"geometry":{"type":"Point","coordinates":[569757.291334572480991,4743667.787888155318797]}},
{"type":"Feature","properties":{"fid":141,"clase":"vegetacion"},"geometry":{"type":"Point","coordinates":[568205.113639356801286,4746161.049697792157531]}},
{"type":"Feature","properties":{"fid":142,"clase":"vegetacion"},"geometry":{"type":"Point","coordinates":[565907.401775572798215,4742580.041314342059195]}},
{"type":"Feature","properties":{"fid":143,"clase":"vegetacion"},"geometry":{"type":"Point","coordinates":[563890.792958953999914,4743618.900401690974832]}},
{"type":"Feature","properties":{"fid":144,"clase":"vegetacion"},"geometry":{"type":"Point","coordinates":[564636.32712752209045,4740282.329450557939708]}},
{"type":"Feature","properties":{"fid":145,"clase":"vegetacion"},"geometry":{"type":"Point","coordinates":[562033.068473341409117,4741162.304206901229918]}},
{"type":"Feature","properties":{"fid":146,"clase":"vegetacion"},"geometry":{"type":"Point","coordinates":[562375.280878585763276,4738950.145444427616894]}},
{"type":"Feature","properties":{"fid":147,"clase":"vegetacion"},"geometry":{"type":"Point","coordinates":[556398.785658424487337,4739549.017153605818748]}},
{"type":"Feature","properties":{"fid":148,"clase":"vegetacion"},"geometry":{"type":"Point","coordinates":[557633.194691627519205,4741590.069713456556201]}},
{"type":"Feature","properties":{"fid":149,"clase":"vegetacion"},"geometry":{"type":"Point","coordinates":[550000.635867515462451,4748810.14037053193897]}},
{"type":"Feature","properties":{"fid":150,"clase":"vegetacion"},"geometry":{"type":"Point","coordinates":[550006.746803323389031,4747930.165614189580083]}},
{"type":"Feature","properties":{"fid":151,"clase":"urbano"},"geometry":{"type":"Point","coordinates":[582941.63534019398503,4796412.802580402232707]}},
{"type":"Feature","properties":{"fid":152,"clase":"urbano"},"geometry":{"type":"Point","coordinates":[582842.332633314887062,4796559.465039793401957]}},
{"type":"Feature","properties":{"fid":153,"clase":"urbano"},"geometry":{"type":"Point","coordinates":[582878.998248162562959,4796560.992773745208979]}},
{"type":"Feature","properties":{"fid":154,"clase":"urbano"},"geometry":{"type":"Point","coordinates":[582798.028348707361147,4796700.016563375480473]}},
{"type":"Feature","properties":{"fid":155,"clase":"urbano"},"geometry":{"type":"Point","coordinates":[582782.751009187544696,4796391.414305075071752]}},
{"type":"Feature","properties":{"fid":156,"clase":"urbano"},"geometry":{"type":"Point","coordinates":[582298.459346408373676,4796947.509463598951697]}},
{"type":"Feature","properties":{"fid":157,"clase":"urbano"},"geometry":{"type":"Point","coordinates":[582066.243785706814378,4797130.837537837214768]}},
{"type":"Feature","properties":{"fid":158,"clase":"urbano"},"geometry":{"type":"Point","coordinates":[581999.02349181950558,4797155.281281068921089]}},
{"type":"Feature","properties":{"fid":159,"clase":"urbano"},"geometry":{"type":"Point","coordinates":[582481.787420646403916,4797259.167189803905785]}},
{"type":"Feature","properties":{"fid":160,"clase":"urbano"},"geometry":{"type":"Point","coordinates":[579107.023120714002289,4786253.37179971113801]}},
{"type":"Feature","properties":{"fid":161,"clase":"urbano"},"geometry":{"type":"Point","coordinates":[579143.688735561561771,4785976.851954401470721]}},
{"type":"Feature","properties":{"fid":162,"clase":"urbano"},"geometry":{"type":"Point","coordinates":[579498.123012421885505,4786235.038992286659777]}},
{"type":"Feature","properties":{"fid":163,"clase":"urbano"},"geometry":{"type":"Point","coordinates":[579437.013654342503287,4786241.149928094819188]}},
{"type":"Feature","properties":{"fid":164,"clase":"urbano"},"geometry":{"type":"Point","coordinates":[579522.566755653591827,4786277.815542942844331]}},
{"type":"Feature","properties":{"fid":165,"clase":"urbano"},"geometry":{"type":"Point","coordinates":[579433.958186438539997,4786066.988257569260895]}},
{"type":"Feature","properties":{"fid":166,"clase":"urbano"},"geometry":{"type":"Point","coordinates":[579554.649168645264581,4786140.319487264379859]}},
{"type":"Feature","properties":{"fid":167,"clase":"urbano"},"geometry":{"type":"Point","coordinates":[579328.544543751631863,4786195.317909535951912]}},
{"type":"Feature","properties":{"fid":168,"clase":"urbano"},"geometry":{"type":"Point","coordinates":[578194.965951379504986,4784105.377863220870495]}},
{"type":"Feature","properties":{"fid":169,"clase":"urbano"},"geometry":{"type":"Point","coordinates":[577586.927838489878923,4783492.756548475474119]}},
{"type":"Feature","properties":{"fid":170,"clase":"urbano"},"geometry":{"type":"Point","coordinates":[578275.935850834590383,4784152.737615733407438]}},
{"type":"Feature","properties":{"fid":171,"clase":"urbano"},"geometry":{"type":"Point","coordinates":[578379.821759569458663,4784430.785194993950427]}},
{"type":"Feature","properties":{"fid":172,"clase":"urbano"},"geometry":{"type":"Point","coordinates":[578531.067420815699734,4784663.000755696557462]}},
{"type":"Feature","properties":{"fid":173,"clase":"urbano"},"geometry":{"type":"Point","coordinates":[525139.821266880026087,4747621.563355892896652]}},
{"type":"Feature","properties":{"fid":174,"clase":"urbano"},"geometry":{"type":"Point","coordinates":[524841.913146243081428,4747884.333595633506775]}},
{"type":"Feature","properties":{"fid":175,"clase":"urbano"},"geometry":{"type":"Point","coordinates":[524912.188908034353517,4747552.815328053198755]}},
{"type":"Feature","properties":{"fid":176,"clase":"urbano"},"geometry":{"type":"Point","coordinates":[524276.651584008999635,4747584.897741044871509]}},
{"type":"Feature","properties":{"fid":177,"clase":"urbano"},"geometry":{"type":"Point","coordinates":[523963.466123852296732,4747552.815328053198755]}},
{"type":"Feature","properties":{"fid":178,"clase":"urbano"},"geometry":{"type":"Point","coordinates":[525229.95757004711777,4745314.685088396072388]}},
{"type":"Feature","properties":{"fid":179,"clase":"urbano"},"geometry":{"type":"Point","coordinates":[525712.721498874132521,4746047.997385348193347]}},
{"type":"Feature","properties":{"fid":180,"clase":"urbano"},"geometry":{"type":"Point","coordinates":[524945.799054978182539,4745595.788135561160743]}},
{"type":"Feature","properties":{"fid":181,"clase":"urbano"},"geometry":{"type":"Point","coordinates":[526913.520385133335367,4746494.095699327066541]}},
{"type":"Feature","properties":{"fid":182,"clase":"urbano"},"geometry":{"type":"Point","coordinates":[526757.691522030974738,4745821.892760453745723]}},
{"type":"Feature","properties":{"fid":183,"clase":"urbano"},"geometry":{"type":"Point","coordinates":[527109.070330987335183,4746225.214523777365685]}},
{"type":"Feature","properties":{"fid":184,"clase":"urbano"},"geometry":{"type":"Point","coordinates":[526442.978327922290191,4746362.710579456761479]}},
{"type":"Feature","properties":{"fid":185,"clase":"urbano"},"geometry":{"type":"Point","coordinates":[527732.385783396777697,4746872.973719418980181]}},
{"type":"Feature","properties":{"fid":186,"clase":"urbano"},"geometry":{"type":"Point","coordinates":[527539.891305446741171,4745974.666155652143061]}},
{"type":"Feature","properties":{"fid":187,"clase":"urbano"},"geometry":{"type":"Point","coordinates":[527237.399982953909785,4745534.678777481429279]}},
{"type":"Feature","properties":{"fid":188,"clase":"urbano"},"geometry":{"type":"Point","coordinates":[527038.794569196063094,4745528.567841673269868]}},
{"type":"Feature","properties":{"fid":189,"clase":"urbano"},"geometry":{"type":"Point","coordinates":[528291.536409822874703,4745983.832559363916516]}},
{"type":"Feature","properties":{"fid":190,"clase":"urbano"},"geometry":{"type":"Point","coordinates":[528221.260648031602614,4745864.669311109930277]}},
{"type":"Feature","properties":{"fid":191,"clase":"urbano"},"geometry":{"type":"Point","coordinates":[528224.316115935565904,4746326.044964608736336]}},
{"type":"Feature","properties":{"fid":192,"clase":"urbano"},"geometry":{"type":"Point","coordinates":[529070.680725334677845,4745727.173255431465805]}},
{"type":"Feature","properties":{"fid":193,"clase":"urbano"},"geometry":{"type":"Point","coordinates":[529171.511166165699251,4745635.509218311868608]}},
{"type":"Feature","properties":{"fid":194,"clase":"urbano"},"geometry":{"type":"Point","coordinates":[528841.520632537081838,4745568.288924424909055]}},
{"type":"Feature","properties":{"fid":195,"clase":"urbano"},"geometry":{"type":"Point","coordinates":[529345.67283669183962,4745919.66773338150233]}},
{"type":"Feature","properties":{"fid":196,"clase":"urbano"},"geometry":{"type":"Point","coordinates":[530399.809263560804538,4746332.15590041782707]}},
{"type":"Feature","properties":{"fid":197,"clase":"urbano"},"geometry":{"type":"Point","coordinates":[530462.446355592110194,4746219.103587971068919]}},
{"type":"Feature","properties":{"fid":198,"clase":"urbano"},"geometry":{"type":"Point","coordinates":[530613.69201683846768,4746038.830981637351215]}},
{"type":"Feature","properties":{"fid":199,"clase":"urbano"},"geometry":{"type":"Point","coordinates":[522315.041189661598764,4747563.509465718641877]}},
{"type":"Feature","properties":{"fid":200,"clase":"urbano"},"geometry":{"type":"Point","coordinates":[522064.492821536201518,4747215.186124666593969]}},
{"type":"Feature","properties":{"fid":201,"clase":"urbano"},"geometry":{"type":"Point","coordinates":[521942.274105377495289,4747056.30179366003722]}},
{"type":"Feature","properties":{"fid":202,"clase":"urbano"},"geometry":{"type":"Point","coordinates":[521783.38977437117137,4746833.252636670134962]}},
{"type":"Feature","properties":{"fid":203,"clase":"urbano"},"geometry":{"type":"Point","coordinates":[521520.619534629920963,4746494.095699329860508]}},
{"type":"Feature","properties":{"fid":204,"clase":"urbano"},"geometry":{"type":"Point","coordinates":[523390.565891858306713,4747221.29706047475338]}},
{"type":"Feature","properties":{"fid":205,"clase":"urbano"},"geometry":{"type":"Point","coordinates":[528366.395373470615596,4748893.401870923116803]}},
{"type":"Feature","properties":{"fid":206,"clase":"urbano"},"geometry":{"type":"Point","coordinates":[528371.74244230252225,4748842.222783531062305]}},
{"type":"Feature","properties":{"fid":207,"clase":"urbano"},"geometry":{"type":"Point","coordinates":[528351.118033950799145,4748700.907392973080277]}},
{"type":"Feature","properties":{"fid":208,"clase":"urbano"},"geometry":{"type":"Point","coordinates":[528403.060988318175077,4748995.760045705363154]}},
{"type":"Feature","properties":{"fid":209,"clase":"urbano"},"geometry":{"type":"Point","coordinates":[528552.778915612143464,4749751.988351936452091]}},
{"type":"Feature","properties":{"fid":210,"clase":"urbano"},"geometry":{"type":"Point","coordinates":[507723.654214304871857,4725279.218175153248012]}},
{"type":"Feature","properties":{"fid":211,"clase":"urbano"},"geometry":{"type":"Point","coordinates":[508991.673394448996987,4724643.680851129814982]}},
{"type":"Feature","properties":{"fid":212,"clase":"urbano"},"geometry":{"type":"Point","coordinates":[509217.778019342164043,4724701.73474130500108]}},
{"type":"Feature","properties":{"fid":213,"clase":"urbano"},"geometry":{"type":"Point","coordinates":[509495.825598602648824,4725300.606450480408967]}},
{"type":"Feature","properties":{"fid":214,"clase":"urbano"},"geometry":{"type":"Point","coordinates":[506898.677880235249177,4724029.531802432611585]}},
{"type":"Feature","properties":{"fid":215,"clase":"urbano"},"geometry":{"type":"Point","coordinates":[506825.346650540130213,4723907.313086274079978]}},
{"type":"Feature","properties":{"fid":216,"clase":"urbano"},"geometry":{"type":"Point","coordinates":[506810.069311020313762,4723760.650626883842051]}},
{"type":"Feature","properties":{"fid":217,"clase":"urbano"},"geometry":{"type":"Point","coordinates":[506674.864856270025484,4723726.276612962596118]}},
{"type":"Feature","properties":{"fid":218,"clase":"urbano"},"geometry":{"type":"Point","coordinates":[506305.91710686654551,4722957.826435117982328]}},
{"type":"Feature","properties":{"fid":219,"clase":"urbano"},"geometry":{"type":"Point","coordinates":[503421.55540552677121,4725999.544733513146639]}},
{"type":"Feature","properties":{"fid":220,"clase":"urbano"},"geometry":{"type":"Point","coordinates":[504171.67277594935149,4726208.844284934923053]}},
{"type":"Feature","properties":{"fid":221,"clase":"urbano"},"geometry":{"type":"Point","coordinates":[504135.007161101850215,4726202.733349126763642]}},
{"type":"Feature","properties":{"fid":222,"clase":"urbano"},"geometry":{"type":"Point","coordinates":[504707.907393094559666,4726543.418020417913795]}},
{"type":"Feature","properties":{"fid":223,"clase":"urbano"},"geometry":{"type":"Point","coordinates":[504749.156209798064083,4726587.722305025905371]}},
{"type":"Feature","properties":{"fid":224,"clase":"urbano"},"geometry":{"type":"Point","coordinates":[502641.64722304046154,4727779.354787572287023]}},
{"type":"Feature","properties":{"fid":225,"clase":"urbano"},"geometry":{"type":"Point","coordinates":[502465.193951586668845,4727693.037819285877049]}},
{"type":"Feature","properties":{"fid":226,"clase":"urbano"},"geometry":{"type":"Point","coordinates":[502372.76604749186663,4727645.678066773340106]}},
{"type":"Feature","properties":{"fid":227,"clase":"urbano"},"geometry":{"type":"Point","coordinates":[501459.181144207308535,4726991.807935325428843]}},
{"type":"Feature","properties":{"fid":228,"clase":"urbano"},"geometry":{"type":"Point","coordinates":[607636.690806878264993,4740454.19952017813921]}},
{"type":"Feature","properties":{"fid":229,"clase":"urbano"},"geometry":{"type":"Point","coordinates":[607043.930033509735949,4740677.248677167110145]}},
{"type":"Feature","properties":{"fid":230,"clase":"urbano"},"geometry":{"type":"Point","coordinates":[606940.044124774984084,4741077.51497258618474]}},
{"type":"Feature","properties":{"fid":231,"clase":"urbano"},"geometry":{"type":"Point","coordinates":[607291.422933730646037,4741838.326480673626065]}},
{"type":"Feature","properties":{"fid":232,"clase":"urbano"},"geometry":{"type":"Point","coordinates":[608926.098262350074947,4741483.892203814350069]}},
{"type":"Feature","properties":{"fid":233,"clase":"urbano"},"geometry":{"type":"Point","coordinates":[608183.619561687461101,4743341.61668942309916]}},
{"type":"Feature","properties":{"fid":234,"clase":"urbano"},"geometry":{"type":"Point","coordinates":[608070.56724924093578,4743436.336194445379078]}},
{"type":"Feature","properties":{"fid":235,"clase":"urbano"},"geometry":{"type":"Point","coordinates":[608363.89216802129522,4743170.510486801154912]}},
{"type":"Feature","properties":{"fid":236,"clase":"urbano"},"geometry":{"type":"Point","coordinates":[607499.194751200149767,4744120.761004933156073]}},
{"type":"Feature","properties":{"fid":237,"clase":"urbano"},"geometry":{"type":"Point","coordinates":[606924.766785255284049,4744239.924253187142313]}},
{"type":"Feature","properties":{"fid":238,"clase":"urbano"},"geometry":{"type":"Point","coordinates":[607053.096437221742235,4744038.263371526263654]}},
{"type":"Feature","properties":{"fid":239,"clase":"urbano"},"geometry":{"type":"Point","coordinates":[607086.706584165338427,4743784.659535497426987]}},
{"type":"Feature","properties":{"fid":240,"clase":"urbano"},"geometry":{"type":"Point","coordinates":[606738.383243113639764,4743213.28703745547682]}},
{"type":"Feature","properties":{"fid":241,"clase":"urbano"},"geometry":{"type":"Point","coordinates":[605995.904542450909503,4744817.407687035389245]}},
{"type":"Feature","properties":{"fid":242,"clase":"urbano"},"geometry":{"type":"Point","coordinates":[604281.787048328202218,4745504.887965425848961]}},
{"type":"Feature","properties":{"fid":243,"clase":"urbano"},"geometry":{"type":"Point","coordinates":[605499.391008057165891,4745999.873765868134797]}},
{"type":"Feature","properties":{"fid":244,"clase":"urbano"},"geometry":{"type":"Point","coordinates":[604992.183335999492556,4746329.864299495704472]}},
{"type":"Feature","properties":{"fid":245,"clase":"urbano"},"geometry":{"type":"Point","coordinates":[605739.245238518109545,4745837.933966957964003]}},
{"type":"Feature","properties":{"fid":246,"clase":"urbano"},"geometry":{"type":"Point","coordinates":[601987.130652453168295,4747358.029249179176986]}},
{"type":"Feature","properties":{"fid":247,"clase":"urbano"},"geometry":{"type":"Point","coordinates":[601657.140118825365789,4747640.660030296072364]}},
{"type":"Feature","properties":{"fid":248,"clase":"urbano"},"geometry":{"type":"Point","coordinates":[602225.457148962188512,4746992.900834656320512]}},
{"type":"Feature","properties":{"fid":249,"clase":"urbano"},"geometry":{"type":"Point","coordinates":[601282.845300590037368,4748092.869280082173645]}},
{"type":"Feature","properties":{"fid":250,"clase":"urbano"},"geometry":{"type":"Point","coordinates":[600563.28260920708999,4749011.03738522157073]}},
{"type":"Feature","properties":{"fid":251,"clase":"litoral"},"geometry":{"type":"Point","coordinates":[547103.288427540566772,4796919.246385388076305]}},
{"type":"Feature","properties":{"fid":252,"clase":"litoral"},"geometry":{"type":"Point","coordinates":[547070.442147572990507,4796858.137027309276164]}},
{"type":"Feature","properties":{"fid":253,"clase":"litoral"},"geometry":{"type":"Point","coordinates":[547120.857367988326587,4796882.580770540982485]}},
{"type":"Feature","properties":{"fid":254,"clase":"litoral"},"geometry":{"type":"Point","coordinates":[547132.315372628159821,4796858.137027309276164]}},
{"type":"Feature","properties":{"fid":255,"clase":"litoral"},"geometry":{"type":"Point","coordinates":[547078.844684308860451,4796894.802642156369984]}},
{"type":"Feature","properties":{"fid":256,"clase":"litoral"},"geometry":{"type":"Point","coordinates":[547730.423214828595519,4796607.588659185916185]}},
{"type":"Feature","properties":{"fid":257,"clase":"litoral"},"geometry":{"type":"Point","coordinates":[547695.28533393307589,4796606.060925234109163]}},
{"type":"Feature","properties":{"fid":258,"clase":"litoral"},"geometry":{"type":"Point","coordinates":[550236.670763053116389,4795524.425287230871618]}},
{"type":"Feature","properties":{"fid":259,"clase":"litoral"},"geometry":{"type":"Point","coordinates":[550267.989309068769217,4795522.133686303161085]}},
{"type":"Feature","properties":{"fid":260,"clase":"litoral"},"geometry":{"type":"Point","coordinates":[550255.767437452916056,4795505.328612831421196]}},
{"type":"Feature","properties":{"fid":261,"clase":"litoral"},"geometry":{"type":"Point","coordinates":[550226.740492365323007,4795550.396764415316284]}},
{"type":"Feature","properties":{"fid":262,"clase":"litoral"},"geometry":{"type":"Point","coordinates":[550265.697708140825853,4795541.99422767944634]}},
{"type":"Feature","properties":{"fid":263,"clase":"litoral"},"geometry":{"type":"Point","coordinates":[552211.266895988723263,4794361.819749774411321]}},
{"type":"Feature","properties":{"fid":264,"clase":"litoral"},"geometry":{"type":"Point","coordinates":[552128.005395605810918,4794457.30312177259475]}},
{"type":"Feature","properties":{"fid":265,"clase":"litoral"},"geometry":{"type":"Point","coordinates":[552116.547390965861268,4794535.217553324066103]}},
{"type":"Feature","properties":{"fid":266,"clase":"litoral"},"geometry":{"type":"Point","coordinates":[552221.961033652536571,4794328.209602830931544]}},
{"type":"Feature","properties":{"fid":267,"clase":"litoral"},"geometry":{"type":"Point","coordinates":[552171.545813237200491,4794383.971892078407109]}},
{"type":"Feature","properties":{"fid":268,"clase":"litoral"},"geometry":{"type":"Point","coordinates":[552166.962611381313764,4794337.376006542704999]}},
{"type":"Feature","properties":{"fid":269,"clase":"litoral"},"geometry":{"type":"Point","coordinates":[552337.304947027121671,4794145.645395569503307]}},
{"type":"Feature","properties":{"fid":270,"clase":"litoral"},"geometry":{"type":"Point","coordinates":[552354.873887474881485,4794125.784854193218052]}},
{"type":"Feature","properties":{"fid":271,"clase":"litoral"},"geometry":{"type":"Point","coordinates":[552415.983245554147288,4794108.215913745574653]}},
{"type":"Feature","properties":{"fid":272,"clase":"litoral"},"geometry":{"type":"Point","coordinates":[552507.647282673045993,4794115.090716529637575]}},
{"type":"Feature","properties":{"fid":273,"clase":"litoral"},"geometry":{"type":"Point","coordinates":[552574.867576560121961,4794101.341110961511731]}},
{"type":"Feature","properties":{"fid":274,"clase":"litoral"},"geometry":{"type":"Point","coordinates":[552406.052974866237491,4794147.93699649721384]}},
{"type":"Feature","properties":{"fid":275,"clase":"litoral"},"geometry":{"type":"Point","coordinates":[552474.801002705469728,4794079.952835634350777]}},
{"type":"Feature","properties":{"fid":276,"clase":"litoral"},"geometry":{"type":"Point","coordinates":[552571.04824168025516,4794073.841899826191366]}},
{"type":"Feature","properties":{"fid":277,"clase":"litoral"},"geometry":{"type":"Point","coordinates":[555231.59691905498039,4793986.761064565740526]}},
{"type":"Feature","properties":{"fid":278,"clase":"litoral"},"geometry":{"type":"Point","coordinates":[555271.318001806503162,4793959.261853429488838]}},
{"type":"Feature","properties":{"fid":279,"clase":"litoral"},"geometry":{"type":"Point","coordinates":[555317.150020365836099,4793933.290376245975494]}},
{"type":"Feature","properties":{"fid":280,"clase":"litoral"},"geometry":{"type":"Point","coordinates":[555717.416315784910694,4793965.372789237648249]}},
{"type":"Feature","properties":{"fid":281,"clase":"litoral"},"geometry":{"type":"Point","coordinates":[555807.552618951769546,4793971.48372504580766]}},
{"type":"Feature","properties":{"fid":282,"clase":"litoral"},"geometry":{"type":"Point","coordinates":[555757.13739853631705,4793971.48372504580766]}},
{"type":"Feature","properties":{"fid":283,"clase":"litoral"},"geometry":{"type":"Point","coordinates":[555885.467050502775237,4794214.39342341106385]}},
{"type":"Feature","properties":{"fid":284,"clase":"litoral"},"geometry":{"type":"Point","coordinates":[555928.243601158261299,4794218.976625266484916]}},
{"type":"Feature","properties":{"fid":285,"clase":"litoral"},"geometry":{"type":"Point","coordinates":[560014.168055731104687,4794499.315805455669761]}},
{"type":"Feature","properties":{"fid":286,"clase":"litoral"},"geometry":{"type":"Point","coordinates":[560010.348720851237886,4794467.997259439900517]}},
{"type":"Feature","properties":{"fid":287,"clase":"litoral"},"geometry":{"type":"Point","coordinates":[559983.613376691471785,4794437.442580400034785]}},
{"type":"Feature","properties":{"fid":288,"clase":"litoral"},"geometry":{"type":"Point","coordinates":[559991.252046451438218,4794459.594722704030573]}},
{"type":"Feature","properties":{"fid":289,"clase":"litoral"},"geometry":{"type":"Point","coordinates":[560082.152216594433412,4794676.53294388577342]}},
{"type":"Feature","properties":{"fid":290,"clase":"litoral"},"geometry":{"type":"Point","coordinates":[560065.347143122577108,4794702.504421070218086]}},
{"type":"Feature","properties":{"fid":291,"clase":"litoral"},"geometry":{"type":"Point","coordinates":[561032.402734726550989,4794629.1731913741678]}},
{"type":"Feature","properties":{"fid":292,"clase":"litoral"},"geometry":{"type":"Point","coordinates":[561119.483569989446551,4794635.284127182327211]}},
{"type":"Feature","properties":{"fid":293,"clase":"litoral"},"geometry":{"type":"Point","coordinates":[561061.429679814144038,4794685.699347597546875]}},
{"type":"Feature","properties":{"fid":294,"clase":"litoral"},"geometry":{"type":"Point","coordinates":[561104.2062304696301,4794710.143090829253197]}},
{"type":"Feature","properties":{"fid":295,"clase":"litoral"},"geometry":{"type":"Point","coordinates":[561143.927313221152872,4794685.699347597546875]}},
{"type":"Feature","properties":{"fid":296,"clase":"litoral"},"geometry":{"type":"Point","coordinates":[561052.263276102254167,4794768.196981004439294]}},
{"type":"Feature","properties":{"fid":297,"clase":"litoral"},"geometry":{"type":"Point","coordinates":[561033.930468678474426,4794719.309494541026652]}},
{"type":"Feature","properties":{"fid":298,"clase":"litoral"},"geometry":{"type":"Point","coordinates":[561001.848055686918087,4794621.534521614201367]}},
{"type":"Feature","properties":{"fid":299,"clase":"litoral"},"geometry":{"type":"Point","coordinates":[561088.928890949813649,4794609.312649997882545]}},
{"type":"Feature","properties":{"fid":300,"clase":"litoral"},"geometry":{"type":"Point","coordinates":[561049.207808198290877,4794581.81343886256218]}},
{"type":"Feature","properties":{"fid":301,"clase":"litoral"},"geometry":{"type":"Point","coordinates":[564922.013376469956711,4795388.456965506076813]}},
{"type":"Feature","properties":{"fid":302,"clase":"litoral"},"geometry":{"type":"Point","coordinates":[564899.097367190290242,4795328.875341379083693]}},
{"type":"Feature","properties":{"fid":303,"clase":"litoral"},"geometry":{"type":"Point","coordinates":[564911.319238806143403,4795521.369819328188896]}},
{"type":"Feature","properties":{"fid":304,"clase":"litoral"},"geometry":{"type":"Point","coordinates":[564694.381017624749802,4794801.807127945125103]}},
{"type":"Feature","properties":{"fid":305,"clase":"litoral"},"geometry":{"type":"Point","coordinates":[564663.826338585116901,4794707.087622922845185]}},
{"type":"Feature","properties":{"fid":306,"clase":"litoral"},"geometry":{"type":"Point","coordinates":[564663.826338585116901,4794644.450530891306698]}},
{"type":"Feature","properties":{"fid":307,"clase":"litoral"},"geometry":{"type":"Point","coordinates":[564685.214613912859932,4794604.729448139667511]}},
{"type":"Feature","properties":{"fid":308,"clase":"litoral"},"geometry":{"type":"Point","coordinates":[564700.491953432676382,4794578.757970956154168]}},
{"type":"Feature","properties":{"fid":309,"clase":"litoral"},"geometry":{"type":"Point","coordinates":[564688.270081816823222,4794659.727870411239564]}},
{"type":"Feature","properties":{"fid":310,"clase":"litoral"},"geometry":{"type":"Point","coordinates":[564654.65993487322703,4794676.532943882979453]}},
{"type":"Feature","properties":{"fid":311,"clase":"litoral"},"geometry":{"type":"Point","coordinates":[564679.103678104933351,4794736.114568009972572]}},
{"type":"Feature","properties":{"fid":312,"clase":"litoral"},"geometry":{"type":"Point","coordinates":[564669.937274393043481,4794777.363384713418782]}},
{"type":"Feature","properties":{"fid":313,"clase":"litoral"},"geometry":{"type":"Point","coordinates":[564717.297026904416271,4794843.055944648571312]}},
{"type":"Feature","properties":{"fid":314,"clase":"litoral"},"geometry":{"type":"Point","coordinates":[564680.631412056856789,4794821.667669321410358]}},
{"type":"Feature","properties":{"fid":315,"clase":"litoral"},"geometry":{"type":"Point","coordinates":[564697.436485528713092,4794774.307916809804738]}},
{"type":"Feature","properties":{"fid":316,"clase":"litoral"},"geometry":{"type":"Point","coordinates":[564686.742347864783369,4794704.032155018299818]}},
{"type":"Feature","properties":{"fid":317,"clase":"litoral"},"geometry":{"type":"Point","coordinates":[564717.297026904416271,4794821.667669321410358]}},
{"type":"Feature","properties":{"fid":318,"clase":"litoral"},"geometry":{"type":"Point","coordinates":[565597.271783245378174,4793846.209540979936719]}},
{"type":"Feature","properties":{"fid":319,"clase":"litoral"},"geometry":{"type":"Point","coordinates":[565605.674319981248118,4793793.502719637006521]}},
{"type":"Feature","properties":{"fid":320,"clase":"litoral"},"geometry":{"type":"Point","coordinates":[565567.480971181765199,4793901.207963251508772]}},
{"type":"Feature","properties":{"fid":321,"clase":"litoral"},"geometry":{"type":"Point","coordinates":[565511.71868193440605,4794018.079610577784479]}},
{"type":"Feature","properties":{"fid":322,"clase":"litoral"},"geometry":{"type":"Point","coordinates":[565514.77414983836934,4794134.187390928156674]}},
{"type":"Feature","properties":{"fid":323,"clase":"litoral"},"geometry":{"type":"Point","coordinates":[565473.52533313492313,4794307.585194478742778]}},
{"type":"Feature","properties":{"fid":324,"clase":"litoral"},"geometry":{"type":"Point","coordinates":[565457.484126639203168,4794320.570933070033789]}},
{"type":"Feature","properties":{"fid":325,"clase":"litoral"},"geometry":{"type":"Point","coordinates":[565335.265410480671562,4794359.528148845769465]}},
{"type":"Feature","properties":{"fid":326,"clase":"litoral"},"geometry":{"type":"Point","coordinates":[566613.978728288668208,4793404.69442885927856]}},
{"type":"Feature","properties":{"fid":327,"clase":"litoral"},"geometry":{"type":"Point","coordinates":[566693.420893791597337,4793091.50896870251745]}},
{"type":"Feature","properties":{"fid":328,"clase":"litoral"},"geometry":{"type":"Point","coordinates":[566714.809169119340368,4793074.703895230777562]}},
{"type":"Feature","properties":{"fid":329,"clase":"litoral"},"geometry":{"type":"Point","coordinates":[566760.64118767878972,4793064.009757567197084]}},
{"type":"Feature","properties":{"fid":330,"clase":"litoral"},"geometry":{"type":"Point","coordinates":[566802.653871358255856,4793067.065225470811129]}},
{"type":"Feature","properties":{"fid":331,"clase":"litoral"},"geometry":{"type":"Point","coordinates":[566844.666555037721992,4793079.287097087129951]}},
{"type":"Feature","properties":{"fid":332,"clase":"litoral"},"geometry":{"type":"Point","coordinates":[567042.50810181919951,4793055.60722083132714]}},
{"type":"Feature","properties":{"fid":333,"clase":"litoral"},"geometry":{"type":"Point","coordinates":[567125.005735226208344,4793068.592959423549473]}},
{"type":"Feature","properties":{"fid":334,"clase":"litoral"},"geometry":{"type":"Point","coordinates":[567200.628565849270672,4793083.106431967578828]}},
{"type":"Feature","properties":{"fid":335,"clase":"litoral"},"geometry":{"type":"Point","coordinates":[567205.975634681177326,4793060.190422687679529]}},
{"type":"Feature","properties":{"fid":336,"clase":"litoral"},"geometry":{"type":"Point","coordinates":[567252.57152021676302,4793081.578698014840484]}},
{"type":"Feature","properties":{"fid":337,"clase":"litoral"},"geometry":{"type":"Point","coordinates":[567311.389277367969044,4793077.759363134391606]}},
{"type":"Feature","properties":{"fid":338,"clase":"litoral"},"geometry":{"type":"Point","coordinates":[567366.387699639308266,4793100.675372414290905]}},
{"type":"Feature","properties":{"fid":339,"clase":"litoral"},"geometry":{"type":"Point","coordinates":[567482.495479989796877,4793119.772046813741326]}},
{"type":"Feature","properties":{"fid":340,"clase":"litoral"},"geometry":{"type":"Point","coordinates":[567529.855232501169667,4793136.577120286412537]}},
{"type":"Feature","properties":{"fid":341,"clase":"litoral"},"geometry":{"type":"Point","coordinates":[567677.28155886742752,4793180.881404892541468]}},
{"type":"Feature","properties":{"fid":342,"clase":"litoral"},"geometry":{"type":"Point","coordinates":[567645.199145875871181,4793157.965395612642169]}},
{"type":"Feature","properties":{"fid":343,"clase":"litoral"},"geometry":{"type":"Point","coordinates":[567807.902811761829071,4793161.020863517187536]}},
{"type":"Feature","properties":{"fid":344,"clase":"litoral"},"geometry":{"type":"Point","coordinates":[567841.512958705308847,4793161.784730493091047]}},
{"type":"Feature","properties":{"fid":345,"clase":"litoral"},"geometry":{"type":"Point","coordinates":[567848.387761489255354,4793186.992340700700879]}},
{"type":"Feature","properties":{"fid":346,"clase":"litoral"},"geometry":{"type":"Point","coordinates":[567847.623894513235427,4793206.0890151001513]}},
{"type":"Feature","properties":{"fid":347,"clase":"litoral"},"geometry":{"type":"Point","coordinates":[567816.305348497699015,4793186.228473724797368]}},
{"type":"Feature","properties":{"fid":348,"clase":"litoral"},"geometry":{"type":"Point","coordinates":[568086.714257998275571,4793278.656377819366753]}},
{"type":"Feature","properties":{"fid":349,"clase":"litoral"},"geometry":{"type":"Point","coordinates":[568164.628689549281262,4793296.989185242913663]}},
{"type":"Feature","properties":{"fid":350,"clase":"litoral"},"geometry":{"type":"Point","coordinates":[568214.280042988713831,4793316.849726619198918]}},
{"type":"Feature","properties":{"fid":351,"clase":"litoral"},"geometry":{"type":"Point","coordinates":[568308.235681035555899,4793337.474134971387684]}},
{"type":"Feature","properties":{"fid":352,"clase":"litoral"},"geometry":{"type":"Point","coordinates":[568357.887034474872053,4793347.404405659064651]}},
{"type":"Feature","properties":{"fid":353,"clase":"litoral"},"geometry":{"type":"Point","coordinates":[568410.593855818267912,4793357.334676346741617]}},
{"type":"Feature","properties":{"fid":354,"clase":"litoral"},"geometry":{"type":"Point","coordinates":[568444.967869737767614,4793374.139749818481505]}},
{"type":"Feature","properties":{"fid":355,"clase":"litoral"},"geometry":{"type":"Point","coordinates":[570476.85402587254066,4792790.545380162075162]}},
{"type":"Feature","properties":{"fid":356,"clase":"litoral"},"geometry":{"type":"Point","coordinates":[570476.85402587254066,4792747.76882950682193]}},
{"type":"Feature","properties":{"fid":357,"clase":"litoral"},"geometry":{"type":"Point","coordinates":[570449.354814736871049,4792769.157104834914207]}},
{"type":"Feature","properties":{"fid":358,"clase":"litoral"},"geometry":{"type":"Point","coordinates":[570476.85402587254066,4792759.990701123140752]}},
{"type":"Feature","properties":{"fid":359,"clase":"litoral"},"geometry":{"type":"Point","coordinates":[570745.735201421077363,4793216.783152765594423]}},
{"type":"Feature","properties":{"fid":360,"clase":"litoral"},"geometry":{"type":"Point","coordinates":[570698.375448909704573,4793222.894088573753834]}},
{"type":"Feature","properties":{"fid":361,"clase":"litoral"},"geometry":{"type":"Point","coordinates":[570828.232834828086197,4793232.060492285527289]}},
{"type":"Feature","properties":{"fid":362,"clase":"litoral"},"geometry":{"type":"Point","coordinates":[570793.094953932566568,4793253.448767613619566]}},
{"type":"Feature","properties":{"fid":363,"clase":"litoral"},"geometry":{"type":"Point","coordinates":[570858.787513867719099,4793244.282363900914788]}},
{"type":"Feature","properties":{"fid":364,"clase":"litoral"},"geometry":{"type":"Point","coordinates":[570722.819192141410895,4793158.729262590408325]}},
{"type":"Feature","properties":{"fid":365,"clase":"litoral"},"geometry":{"type":"Point","coordinates":[568935.370468323701061,4794116.618450481444597]}},
{"type":"Feature","properties":{"fid":366,"clase":"litoral"},"geometry":{"type":"Point","coordinates":[568939.189803203567863,4794094.466308177448809]}},
{"type":"Feature","properties":{"fid":367,"clase":"litoral"},"geometry":{"type":"Point","coordinates":[568961.34194550733082,4794076.89736772980541]}},
{"type":"Feature","properties":{"fid":368,"clase":"litoral"},"geometry":{"type":"Point","coordinates":[569004.882363138836809,4793943.220646930858493]}},
{"type":"Feature","properties":{"fid":369,"clase":"litoral"},"geometry":{"type":"Point","coordinates":[580715.72697204828728,4796551.06250296253711]}},
{"type":"Feature","properties":{"fid":370,"clase":"litoral"},"geometry":{"type":"Point","coordinates":[580816.557412879075855,4796499.119548595510423]}},
{"type":"Feature","properties":{"fid":371,"clase":"litoral"},"geometry":{"type":"Point","coordinates":[580886.833174670115113,4796433.426988660357893]}},
{"type":"Feature","properties":{"fid":372,"clase":"litoral"},"geometry":{"type":"Point","coordinates":[580957.108936461270787,4796421.968984019942582]}},
{"type":"Feature","properties":{"fid":373,"clase":"litoral"},"geometry":{"type":"Point","coordinates":[580926.554257421637885,4796430.371520755812526]}},
{"type":"Feature","properties":{"fid":374,"clase":"litoral"},"geometry":{"type":"Point","coordinates":[580995.302285260753706,4796405.927777524106205]}},
{"type":"Feature","properties":{"fid":375,"clase":"litoral"},"geometry":{"type":"Point","coordinates":[581035.023368012276478,4796389.122704052366316]}},
{"type":"Feature","properties":{"fid":376,"clase":"litoral"},"geometry":{"type":"Point","coordinates":[581071.68898285983596,4796386.831103124655783]}},
{"type":"Feature","properties":{"fid":377,"clase":"litoral"},"geometry":{"type":"Point","coordinates":[581092.313391211559065,4796379.956300340592861]}},
{"type":"Feature","properties":{"fid":378,"clase":"litoral"},"geometry":{"type":"Point","coordinates":[580847.112091918592341,4796472.384204435162246]}},
{"type":"Feature","properties":{"fid":379,"clase":"litoral"},"geometry":{"type":"Point","coordinates":[580755.448054799810052,4796524.327158803120255]}},
{"type":"Feature","properties":{"fid":380,"clase":"litoral"},"geometry":{"type":"Point","coordinates":[581719.448178499704227,4796272.251056727953255]}},
{"type":"Feature","properties":{"fid":381,"clase":"litoral"},"geometry":{"type":"Point","coordinates":[581817.987018402433023,4796308.152804599143565]}},
{"type":"Feature","properties":{"fid":382,"clase":"litoral"},"geometry":{"type":"Point","coordinates":[581869.929972769808955,4796323.430144119076431]}},
{"type":"Feature","properties":{"fid":383,"clase":"litoral"},"geometry":{"type":"Point","coordinates":[581940.96960153686814,4796363.151226870715618]}},
{"type":"Feature","properties":{"fid":384,"clase":"litoral"},"geometry":{"type":"Point","coordinates":[581986.037753120297566,4796388.35883707832545]}},
{"type":"Feature","properties":{"fid":385,"clase":"litoral"},"geometry":{"type":"Point","coordinates":[582146.449818078195676,4796544.187700180336833]}},
{"type":"Feature","properties":{"fid":386,"clase":"litoral"},"geometry":{"type":"Point","coordinates":[582190.754102685721591,4796602.241590356454253]}},
{"type":"Feature","properties":{"fid":387,"clase":"litoral"},"geometry":{"type":"Point","coordinates":[582283.182006780640222,4796852.02609150391072]}},
{"type":"Feature","properties":{"fid":388,"clase":"litoral"},"geometry":{"type":"Point","coordinates":[582270.196268188767135,4796807.721806896850467]}},
{"type":"Feature","properties":{"fid":389,"clase":"litoral"},"geometry":{"type":"Point","coordinates":[582274.015603068750352,4796776.403260881081223]}},
{"type":"Feature","properties":{"fid":390,"clase":"litoral"},"geometry":{"type":"Point","coordinates":[582246.51639193308074,4796769.528458097018301]}},
{"type":"Feature","properties":{"fid":391,"clase":"litoral"},"geometry":{"type":"Point","coordinates":[582215.197845917544328,4796657.240012626163661]}},
{"type":"Feature","properties":{"fid":392,"clase":"litoral"},"geometry":{"type":"Point","coordinates":[582244.224791005137376,4796680.156021906062961]}},
{"type":"Feature","properties":{"fid":393,"clase":"litoral"},"geometry":{"type":"Point","coordinates":[582234.29452031722758,4796708.41910001821816]}},
{"type":"Feature","properties":{"fid":394,"clase":"litoral"},"geometry":{"type":"Point","coordinates":[582237.34998822119087,4796733.626710225827992]}},
{"type":"Feature","properties":{"fid":395,"clase":"litoral"},"geometry":{"type":"Point","coordinates":[582266.376933308900334,4796735.154444177635014]}},
{"type":"Feature","properties":{"fid":396,"clase":"litoral"},"geometry":{"type":"Point","coordinates":[582228.947451485320926,4796749.667916721664369]}},
{"type":"Feature","properties":{"fid":397,"clase":"litoral"},"geometry":{"type":"Point","coordinates":[582249.57185983704403,4796815.3604766568169]}},
{"type":"Feature","properties":{"fid":398,"clase":"litoral"},"geometry":{"type":"Point","coordinates":[581653.755618564551696,4797263.750391565263271]}},
{"type":"Feature","properties":{"fid":399,"clase":"litoral"},"geometry":{"type":"Point","coordinates":[581627.784141380921938,4797296.596671532839537]}},
{"type":"Feature","properties":{"fid":400,"clase":"litoral"},"geometry":{"type":"Point","coordinates":[581642.297613924718462,4797267.569726445712149]}},
{"type":"Feature","properties":{"fid":401,"clase":"litoral"},"geometry":{"type":"Point","coordinates":[581626.256407428882085,4797360.761497516185045]}},
{"type":"Feature","properties":{"fid":402,"clase":"litoral"},"geometry":{"type":"Point","coordinates":[581615.562269765068777,4797348.539625900797546]}},
{"type":"Feature","properties":{"fid":403,"clase":"litoral"},"geometry":{"type":"Point","coordinates":[581611.74293488508556,4797316.457212909124792]}},
{"type":"Feature","properties":{"fid":404,"clase":"litoral"},"geometry":{"type":"Point","coordinates":[581618.617737669032067,4797292.01346967741847]}}
]
}
